{
  "type": "FeatureCollection",
  "features": [
    {
      "type": "Feature",
      "properties": {
        "norad_id": 30360,
        "name": "FENGYUN 1C DEB",
        "group": "fengyun-1c-debris",
        "lat": -24.858551161431482,
        "lon": -113.17418271232575,
        "alt_km": 812.1406400261676,
        "timestamp": "2025-12-27T07:26:25.497666+00:00",
        "meta_object_name": "FENGYUN 1C DEB",
        "meta_object_id": "1999-025ABX",
        "meta_epoch": "2025-12-25T04:07:04.531008",
        "meta_mean_motion": 14.26589304,
        "meta_eccentricity": 0.0030737,
        "meta_inclination": 98.7642,
        "meta_ra_of_asc_node": 68.784,
        "meta_arg_of_pericenter": 111.94,
        "meta_mean_anomaly": 276.511,
        "meta_ephemeris_type": 0,
        "meta_classification_type": "U",
        "meta_norad_cat_id": 30360,
        "meta_element_set_no": 999,
        "meta_rev_at_epoch": 97602,
        "meta_bstar": 0.001556,
        "meta_mean_motion_dot": 3.731e-05,
        "meta_mean_motion_ddot": 0,
        "tle_line1": "1 30360U 99025ABX 25359.17158022  .00003731  00000+0  15560-2 0  9999",
        "tle_line2": "2 30360  98.7642  68.7840 0030737 111.9400 276.5110 14.26589304976027"
      },
      "geometry": {
        "type": "Point",
        "coordinates": [
          -113.17418271232575,
          -24.858551161431482
        ]
      }
    },
    {
      "type": "Feature",
      "properties": {
        "norad_id": 30361,
        "name": "FENGYUN 1C DEB",
        "group": "fengyun-1c-debris",
        "lat": -61.950879662225915,
        "lon": -159.53480942195978,
        "alt_km": 825.7543323452792,
        "timestamp": "2025-12-27T07:26:25.497676+00:00",
        "meta_object_name": "FENGYUN 1C DEB",
        "meta_object_id": "1999-025ABY",
        "meta_epoch": "2025-12-26T01:39:34.661952",
        "meta_mean_motion": 14.25405805,
        "meta_eccentricity": 0.00647497,
        "meta_inclination": 98.5687,
        "meta_ra_of_asc_node": 35.691,
        "meta_arg_of_pericenter": 351.4125,
        "meta_mean_anomaly": 8.5942,
        "meta_ephemeris_type": 0,
        "meta_classification_type": "U",
        "meta_norad_cat_id": 30361,
        "meta_element_set_no": 999,
        "meta_rev_at_epoch": 97806,
        "meta_bstar": 0.00079869848,
        "meta_mean_motion_dot": 1.883e-05,
        "meta_mean_motion_ddot": 0,
        "tle_line1": "1 30361U 99025ABY 25360.06915118  .00001883  00000+0  79870-3 0  9998",
        "tle_line2": "2 30361  98.5687  35.6910 0064749 351.4125   8.5942 14.25405805978065"
      },
      "geometry": {
        "type": "Point",
        "coordinates": [
          -159.53480942195978,
          -61.950879662225915
        ]
      }
    },
    {
      "type": "Feature",
      "properties": {
        "norad_id": 30362,
        "name": "FENGYUN 1C DEB",
        "group": "fengyun-1c-debris",
        "lat": -78.12987524542655,
        "lon": 54.93490042385887,
        "alt_km": 808.09004633527,
        "timestamp": "2025-12-27T07:26:25.497686+00:00",
        "meta_object_name": "FENGYUN 1C DEB",
        "meta_object_id": "1999-025ABZ",
        "meta_epoch": "2025-12-26T18:17:21.849216",
        "meta_mean_motion": 14.11953003,
        "meta_eccentricity": 0.00946662,
        "meta_inclination": 99.0501,
        "meta_ra_of_asc_node": 283.6948,
        "meta_arg_of_pericenter": 304.8851,
        "meta_mean_anomaly": 54.3448,
        "meta_ephemeris_type": 0,
        "meta_classification_type": "U",
        "meta_norad_cat_id": 30362,
        "meta_element_set_no": 999,
        "meta_rev_at_epoch": 96366,
        "meta_bstar": 0.0025198638,
        "meta_mean_motion_dot": 4.763e-05,
        "meta_mean_motion_ddot": 0,
        "tle_line1": "1 30362U 99025ABZ 25360.76205844  .00004763  00000+0  25199-2 0  9998",
        "tle_line2": "2 30362  99.0501 283.6948 0094666 304.8851  54.3448 14.11953003963665"
      },
      "geometry": {
        "type": "Point",
        "coordinates": [
          54.93490042385887,
          -78.12987524542655
        ]
      }
    },
    {
      "type": "Feature",
      "properties": {
        "norad_id": 30363,
        "name": "FENGYUN 1C DEB",
        "group": "fengyun-1c-debris",
        "lat": 59.25555027111604,
        "lon": 57.16148018983401,
        "alt_km": 804.3562810571811,
        "timestamp": "2025-12-27T07:26:25.497696+00:00",
        "meta_object_name": "FENGYUN 1C DEB",
        "meta_object_id": "1999-025ACA",
        "meta_epoch": "2025-12-26T04:02:39.283008",
        "meta_mean_motion": 14.1694874,
        "meta_eccentricity": 0.0078587,
        "meta_inclination": 99.03,
        "meta_ra_of_asc_node": 71.5096,
        "meta_arg_of_pericenter": 0.1401,
        "meta_mean_anomaly": 359.9782,
        "meta_ephemeris_type": 0,
        "meta_classification_type": "U",
        "meta_norad_cat_id": 30363,
        "meta_element_set_no": 999,
        "meta_rev_at_epoch": 97014,
        "meta_bstar": 0.0013728,
        "meta_mean_motion_dot": 2.795e-05,
        "meta_mean_motion_ddot": 0,
        "tle_line1": "1 30363U 99025ACA 25360.16851022  .00002795  00000+0  13728-2 0  9996",
        "tle_line2": "2 30363  99.0300  71.5096 0078587   0.1401 359.9782 14.16948740970145"
      },
      "geometry": {
        "type": "Point",
        "coordinates": [
          57.16148018983401,
          59.25555027111604
        ]
      }
    },
    {
      "type": "Feature",
      "properties": {
        "norad_id": 30364,
        "name": "FENGYUN 1C DEB",
        "group": "fengyun-1c-debris",
        "lat": -14.313077818050555,
        "lon": 94.36734326098285,
        "alt_km": 804.1381549668022,
        "timestamp": "2025-12-27T07:26:25.497706+00:00",
        "meta_object_name": "FENGYUN 1C DEB",
        "meta_object_id": "1999-025ACB",
        "meta_epoch": "2025-12-25T17:21:29.143872",
        "meta_mean_motion": 14.17375884,
        "meta_eccentricity": 0.03302942,
        "meta_inclination": 98.1382,
        "meta_ra_of_asc_node": 275.003,
        "meta_arg_of_pericenter": 282.5055,
        "meta_mean_anomaly": 103.5826,
        "meta_ephemeris_type": 0,
        "meta_classification_type": "U",
        "meta_norad_cat_id": 30364,
        "meta_element_set_no": 999,
        "meta_rev_at_epoch": 95825,
        "meta_bstar": 0.0030520471,
        "meta_mean_motion_dot": 0.00010553,
        "meta_mean_motion_ddot": 0,
        "tle_line1": "1 30364U 99025ACB 25359.72325398  .00010553  00000+0  30520-2 0  9999",
        "tle_line2": "2 30364  98.1382 275.0030 0330294 282.5055 103.5826 14.17375884958256"
      },
      "geometry": {
        "type": "Point",
        "coordinates": [
          94.36734326098285,
          -14.313077818050555
        ]
      }
    },
    {
      "type": "Feature",
      "properties": {
        "norad_id": 30365,
        "name": "FENGYUN 1C DEB",
        "group": "fengyun-1c-debris",
        "lat": 41.980801803474016,
        "lon": -176.85543948886587,
        "alt_km": 776.869831179335,
        "timestamp": "2025-12-27T07:26:25.497716+00:00",
        "meta_object_name": "FENGYUN 1C DEB",
        "meta_object_id": "1999-025ACC",
        "meta_epoch": "2025-12-26T22:37:50.332224",
        "meta_mean_motion": 14.19245269,
        "meta_eccentricity": 0.01680454,
        "meta_inclination": 98.6197,
        "meta_ra_of_asc_node": 354.9428,
        "meta_arg_of_pericenter": 70.6489,
        "meta_mean_anomaly": 350.4989,
        "meta_ephemeris_type": 0,
        "meta_classification_type": "U",
        "meta_norad_cat_id": 30365,
        "meta_element_set_no": 999,
        "meta_rev_at_epoch": 97814,
        "meta_bstar": 0.00027631246,
        "meta_mean_motion_dot": 6.25e-06,
        "meta_mean_motion_ddot": 0,
        "tle_line1": "1 30365U 99025ACC 25360.94294366  .00000625  00000+0  27631-3 0  9995",
        "tle_line2": "2 30365  98.6197 354.9428 0168045  70.6489 350.4989 14.19245269978142"
      },
      "geometry": {
        "type": "Point",
        "coordinates": [
          -176.85543948886587,
          41.980801803474016
        ]
      }
    },
    {
      "type": "Feature",
      "properties": {
        "norad_id": 30366,
        "name": "FENGYUN 1C DEB",
        "group": "fengyun-1c-debris",
        "lat": -69.98111641705994,
        "lon": 73.69997046204841,
        "alt_km": 775.9745607257373,
        "timestamp": "2025-12-27T07:26:25.497726+00:00",
        "meta_object_name": "FENGYUN 1C DEB",
        "meta_object_id": "1999-025ACD",
        "meta_epoch": "2025-12-26T17:09:37.682208",
        "meta_mean_motion": 14.33524603,
        "meta_eccentricity": 0.00624958,
        "meta_inclination": 98.9241,
        "meta_ra_of_asc_node": 278.6345,
        "meta_arg_of_pericenter": 177.9126,
        "meta_mean_anomaly": 244.504,
        "meta_ephemeris_type": 0,
        "meta_classification_type": "U",
        "meta_norad_cat_id": 30366,
        "meta_element_set_no": 999,
        "meta_rev_at_epoch": 98523,
        "meta_bstar": 0.00048308165,
        "meta_mean_motion_dot": 1.319e-05,
        "meta_mean_motion_ddot": 0,
        "tle_line1": "1 30366U 99025ACD 25360.71501947  .00001319  00000+0  48308-3 0  9992",
        "tle_line2": "2 30366  98.9241 278.6345 0062495 177.9126 244.5040 14.33524603985234"
      },
      "geometry": {
        "type": "Point",
        "coordinates": [
          73.69997046204841,
          -69.98111641705994
        ]
      }
    }
  ]
}